[
    {
        "Altitude(m)": 553719.6510637542,
        "Argument of Periapsis(deg)": 0.013245982221427002,
        "Eccentricity": 0.0,
        "Inclination(deg)": 53.0,
        "Latitude(deg)": 18.862323622409118,
        "Longitude(deg)": -116.74158804055705,
        "Mean Anomaly(deg)": 23.819585735155197,
        "RAAN(deg)": 329.980286737056,
        "Satellite Name": "Starlink Shell 1 1452",
        "Satellite Number": 1452,
        "Semi-Major Axis(m)": 6931778.249405717,
        "Time(s)": 380
    },
    {
        "Altitude(m)": 553755.0481722443,
        "Argument of Periapsis(deg)": 0.013594560700938237,
        "Eccentricity": 0.0,
        "Inclination(deg)": 53.0,
        "Latitude(deg)": 19.348664658687834,
        "Longitude(deg)": -116.36118065206861,
        "Mean Anomaly(deg)": 24.446416938711895,
        "RAAN(deg)": 329.97976796697856,
        "Satellite Name": "Starlink Shell 1 1452",
        "Satellite Number": 1452,
        "Semi-Major Axis(m)": 6931778.249405717,
        "Time(s)": 390
    },
    {
        "Altitude(m)": 553792.5821450489,
        "Argument of Periapsis(deg)": 0.013943139180449475,
        "Eccentricity": 0.0,
        "Inclination(deg)": 53.0,
        "Latitude(deg)": 19.834000502993703,
        "Longitude(deg)": -115.9782700456079,
        "Mean Anomaly(deg)": 25.07324814226859,
        "RAAN(deg)": 329.97924919690104,
        "Satellite Name": "Starlink Shell 1 1452",
        "Satellite Number": 1452,
        "Semi-Major Axis(m)": 6931778.249405717,
        "Time(s)": 400
    },
    {
        "Altitude(m)": 553832.2133483439,
        "Argument of Periapsis(deg)": 0.014291717659960712,
        "Eccentricity": 0.0,
        "Inclination(deg)": 53.0,
        "Latitude(deg)": 20.318297902141236,
        "Longitude(deg)": -115.59277791112645,
        "Mean Anomaly(deg)": 25.700079345825337,
        "RAAN(deg)": 329.97873042682363,
        "Satellite Name": "Starlink Shell 1 1452",
        "Satellite Number": 1452,
        "Semi-Major Axis(m)": 6931778.249405717,
        "Time(s)": 410
    },
    {
        "Altitude(m)": 553873.9012490412,
        "Argument of Periapsis(deg)": 0.014640296139471948,
        "Eccentricity": 0.0,
        "Inclination(deg)": 53.0,
        "Latitude(deg)": 20.8015230093598,
        "Longitude(deg)": -115.2046253958365,
        "Mean Anomaly(deg)": 26.326910549382028,
        "RAAN(deg)": 329.9782116567461,
        "Satellite Name": "Starlink Shell 1 1452",
        "Satellite Number": 1452,
        "Semi-Major Axis(m)": 6931778.249405717,
        "Time(s)": 420
    },
    {
        "Altitude(m)": 553917.6044373552,
        "Argument of Periapsis(deg)": 0.014988874618983185,
        "Eccentricity": 0.0,
        "Inclination(deg)": 53.0,
        "Latitude(deg)": 21.28364136293132,
        "Longitude(deg)": -114.81373257530275,
        "Mean Anomaly(deg)": 26.953741752938775,
        "RAAN(deg)": 329.97769288666865,
        "Satellite Name": "Starlink Shell 1 1452",
        "Satellite Number": 1452,
        "Semi-Major Axis(m)": 6931778.249405717,
        "Time(s)": 430
    },
    {
        "Altitude(m)": 553963.2806497719,
        "Argument of Periapsis(deg)": 0.015337453098494424,
        "Eccentricity": 0.0,
        "Inclination(deg)": 53.0,
        "Latitude(deg)": 21.76461786434383,
        "Longitude(deg)": -114.4200179250639,
        "Mean Anomaly(deg)": 27.580572956495473,
        "RAAN(deg)": 329.97717411659124,
        "Satellite Name": "Starlink Shell 1 1452",
        "Satellite Number": 1452,
        "Semi-Major Axis(m)": 6931778.249405717,
        "Time(s)": 440
    },
    {
        "Altitude(m)": 554010.8867924243,
        "Argument of Periapsis(deg)": 0.01568603157800566,
        "Eccentricity": 0.0,
        "Inclination(deg)": 53.0,
        "Latitude(deg)": 22.244416755952994,
        "Longitude(deg)": -114.02339930573119,
        "Mean Anomaly(deg)": 28.207404160052167,
        "RAAN(deg)": 329.9766553465137,
        "Satellite Name": "Starlink Shell 1 1452",
        "Satellite Number": 1452,
        "Semi-Major Axis(m)": 6931778.249405717,
        "Time(s)": 450
    },
    {
        "Altitude(m)": 554060.3789648506,
        "Argument of Periapsis(deg)": 0.0160346100575169,
        "Eccentricity": 0.0,
        "Inclination(deg)": 53.0,
        "Latitude(deg)": 22.72300159814013,
        "Longitude(deg)": -113.62379343590159,
        "Mean Anomaly(deg)": 28.834235363608915,
        "RAAN(deg)": 329.9761365764362,
        "Satellite Name": "Starlink Shell 1 1452",
        "Satellite Number": 1452,
        "Semi-Major Axis(m)": 6931778.249405717,
        "Time(s)": 460
    },
    {
        "Altitude(m)": 554111.7124840935,
        "Argument of Periapsis(deg)": 0.016383188537028134,
        "Eccentricity": 0.0,
        "Inclination(deg)": 53.0,
        "Latitude(deg)": 23.200335245961234,
        "Longitude(deg)": -113.22111536584849,
        "Mean Anomaly(deg)": 29.46106656716561,
        "RAAN(deg)": 329.9756178063588,
        "Satellite Name": "Starlink Shell 1 1452",
        "Satellite Number": 1452,
        "Semi-Major Axis(m)": 6931778.249405717,
        "Time(s)": 470
    },
    {
        "Altitude(m)": 554164.8419091988,
        "Argument of Periapsis(deg)": 0.01673176701653937,
        "Eccentricity": 0.0,
        "Inclination(deg)": 53.0,
        "Latitude(deg)": 23.67637982528108,
        "Longitude(deg)": -112.81527946495798,
        "Mean Anomaly(deg)": -329.9121022292777,
        "RAAN(deg)": 329.9750990362813,
        "Satellite Name": "Starlink Shell 1 1452",
        "Satellite Number": 1452,
        "Semi-Major Axis(m)": 6931778.249405717,
        "Time(s)": 480
    },
    {
        "Altitude(m)": 554219.7210660274,
        "Argument of Periapsis(deg)": 0.017080345496050607,
        "Eccentricity": 0.0,
        "Inclination(deg)": 53.0,
        "Latitude(deg)": 24.151096708384454,
        "Longitude(deg)": -112.40619889727247,
        "Mean Anomaly(deg)": -329.285271025721,
        "RAAN(deg)": 329.9745802662038,
        "Satellite Name": "Starlink Shell 1 1452",
        "Satellite Number": 1452,
        "Semi-Major Axis(m)": 6931778.249405717,
        "Time(s)": 490
    },
    {
        "Altitude(m)": 554276.3030723962,
        "Argument of Periapsis(deg)": 0.017428923975561842,
        "Eccentricity": 0.0,
        "Inclination(deg)": 53.0,
        "Latitude(deg)": 24.62444648906089,
        "Longitude(deg)": -111.9937850981278,
        "Mean Anomaly(deg)": -328.6584398221642,
        "RAAN(deg)": 329.97406149612635,
        "Satellite Name": "Starlink Shell 1 1452",
        "Satellite Number": 1452,
        "Semi-Major Axis(m)": 6931778.249405717,
        "Time(s)": 500
    },
    {
        "Altitude(m)": 554334.5403635593,
        "Argument of Periapsis(deg)": 0.01777750245507308,
        "Eccentricity": 0.0,
        "Inclination(deg)": 53.0,
        "Latitude(deg)": 25.096388957161867,
        "Longitude(deg)": -111.57794876487799,
        "Mean Anomaly(deg)": -328.0316086186075,
        "RAAN(deg)": 329.9735427260489,
        "Satellite Name": "Starlink Shell 1 1452",
        "Satellite Number": 1452,
        "Semi-Major Axis(m)": 6931778.249405717,
        "Time(s)": 510
    },
    {
        "Altitude(m)": 554394.3847179603,
        "Argument of Periapsis(deg)": 0.018126080934584315,
        "Eccentricity": 0.0,
        "Inclination(deg)": 53.0,
        "Latitude(deg)": 25.566883072624712,
        "Longitude(deg)": -111.15859933609778,
        "Mean Anomaly(deg)": -327.4047774150509,
        "RAAN(deg)": 329.97302395597137,
        "Satellite Name": "Starlink Shell 1 1452",
        "Satellite Number": 1452,
        "Semi-Major Axis(m)": 6931778.249405717,
        "Time(s)": 520
    },
    {
        "Altitude(m)": 554455.7872833037,
        "Argument of Periapsis(deg)": 0.018474659414095554,
        "Eccentricity": 0.0,
        "Inclination(deg)": 53.0,
        "Latitude(deg)": 26.03588693896572,
        "Longitude(deg)": -110.73564447227633,
        "Mean Anomaly(deg)": -326.7779462114941,
        "RAAN(deg)": 329.97250518589397,
        "Satellite Name": "Starlink Shell 1 1452",
        "Satellite Number": 1452,
        "Semi-Major Axis(m)": 6931778.249405717,
        "Time(s)": 530
    },
    {
        "Altitude(m)": 554518.6986028699,
        "Argument of Periapsis(deg)": 0.018823237893606792,
        "Eccentricity": 0.0,
        "Inclination(deg)": 53.0,
        "Latitude(deg)": 26.503357776244023,
        "Longitude(deg)": -110.30899105102985,
        "Mean Anomaly(deg)": -326.1511150079374,
        "RAAN(deg)": 329.97198641581645,
        "Satellite Name": "Starlink Shell 1 1452",
        "Satellite Number": 1452,
        "Semi-Major Axis(m)": 6931778.249405717,
        "Time(s)": 540
    },
    {
        "Altitude(m)": 554583.068642129,
        "Argument of Periapsis(deg)": 0.019171816373118027,
        "Eccentricity": 0.0,
        "Inclination(deg)": 53.0,
        "Latitude(deg)": 26.969251893498043,
        "Longitude(deg)": -109.87854465125253,
        "Mean Anomaly(deg)": -325.5242838043807,
        "RAAN(deg)": 329.971467645739,
        "Satellite Name": "Starlink Shell 1 1452",
        "Satellite Number": 1452,
        "Semi-Major Axis(m)": 6931778.249405717,
        "Time(s)": 550
    },
    {
        "Altitude(m)": 554648.8468155608,
        "Argument of Periapsis(deg)": 0.019520394852629266,
        "Eccentricity": 0.0,
        "Inclination(deg)": 53.0,
        "Latitude(deg)": 27.433524660660872,
        "Longitude(deg)": -109.44420903925734,
        "Mean Anomaly(deg)": -324.8974526008239,
        "RAAN(deg)": 329.9709488756615,
        "Satellite Name": "Starlink Shell 1 1452",
        "Satellite Number": 1452,
        "Semi-Major Axis(m)": 6931778.249405717,
        "Time(s)": 560
    }
]